STARLINK-37742          
1 69241U 26117D   26171.46315611  .00245120  00000+0  11457-2 0  9996
2 69241  53.1574 227.1290 0002646 154.3678 205.7476 15.82061808  3490
STARLINK-37718          
1 69242U 26117E   26171.00002315  .00059451  00000+0  28807-3 0  9999
2 69242  53.1570 229.4379 0001185  81.1874 166.8057 15.81944161  4621
STARLINK-37735          
1 69243U 26117F   26171.39864819  .00397790  00000+0  18243-2 0  9990
2 69243  53.1574 227.4355 0001249  70.9363 289.1796 15.82064732  3488
STARLINK-37757          
1 69244U 26117G   26171.33307263  .00155126  00000+0  73380-3 0  9999
2 69244  53.1575 227.7365 0002518 133.7627 226.3605 15.82064359  3471
STARLINK-37767          
1 69245U 26117H   26171.45516183  .00283755  00000+0  13196-2 0  9994
2 69245  53.1567 227.0734 0001724  30.8533 329.2591 15.82066416  3492
STARLINK-35759          
1 69246U 26117J   26171.39130167  .00275532  00000+0  12862-2 0  9995
2 69246  53.1566 227.3857 0001587  20.1294 339.9791 15.82007370  3487
STARLINK-37238          
1 69247U 26117K   26171.45003403  .00246113  00000+0  11515-2 0  9992
2 69247  53.1570 227.0372 0000911  93.8420 266.2707 15.82037727  3499
STARLINK-37412          
1 69248U 26117L   26171.44666326  .00236656  00000+0  11070-2 0  9998
2 69248  53.1563 227.0138 0000787  95.6238 264.4875 15.82068826  3490
STARLINK-37398          
1 69249U 26117M   26171.45328736  .00192722  00000+0  95641-3 0  9992
2 69249  53.1571 227.0607 0001146  42.1566 317.9545 15.80916376  3490
STARLINK-37499          
1 69250U 26117N   26171.44496773 -.00195758  00000+0 -96818-3 0  9991
2 69250  53.1568 227.0026 0001474 126.7767 233.3391 15.81799202  3497
STARLINK-37489          
1 69251U 26117P   26171.44321527  .00024099  00000+0  12087-3 0  9999
2 69251  53.1575 226.9917 0001536  78.7934 281.3262 15.81657604  3493
STARLINK-37434          
1 69252U 26117Q   26171.44023000 -.00109127  00000+0 -53122-3 0  9998
2 69252  53.1578 226.9707 0000905  94.4989 265.6137 15.81867022  3491
STARLINK-37368          
1 69253U 26117R   26170.35950155  .00347784  00000+0  16058-2 0  9995
2 69253  53.1570 232.3157 0001411  28.9383 331.1718 15.82050377  3321
STARLINK-37517          
1 69254U 26117S   26171.43212619  .01530770  00000+0  66416-2 0  9995
2 69254  53.1572 226.9163 0003081  21.4848 338.6304 15.81446616  3494
STARLINK-37378          
1 69255U 26117T   26171.43181926  .00269955  00000+0  12593-2 0  9992
2 69255  53.1566 226.9138 0000689 112.6775 247.4321 15.82037688  3495
STARLINK-37396          
1 69256U 26117U   26171.42937183  .00184921  00000+0  87151-3 0  9998
2 69256  53.1572 226.8957 0001346  34.2762 325.8348 15.82055670  3498
STARLINK-37508          
1 69257U 26117V   26171.18077369  .00335445  00000+0  15953-2 0  9992
2 69257  53.1572 228.1933 0003031   7.8846 352.2224 15.81444365  3455
STARLINK-37276          
1 69258U 26117W   26171.40704882  .00034506  00000+0  21786-3 0  9991
2 69258  53.1573 226.7411 0021223  82.7128 277.6304 15.76006931  3490
STARLINK-37518          
1 69259U 26117X   26171.15521566  .00263070  00000+0  12869-2 0  9991
2 69259  53.1569 228.0180 0005456 306.9405  53.1118 15.81015845  3459
STARLINK-37478          
1 69260U 26117Y   26171.41668980 -.02250899  00000+0 -19633-1 0  9998
2 69260  53.1598 226.7644 0001308  43.5629 337.5819 15.71782606  4708
STARLINK-37506          
1 69261U 26117Z   26171.40782888  .00240201  00000+0  11869-2 0  9998
2 69261  53.1579 226.7474 0001174  82.8515 277.2641 15.80874738  3485
STARLINK-37503          
1 69262U 26117AA  26171.40757507  .00267916  00000+0  13173-2 0  9991
2 69262  53.1579 226.7459 0001880  41.1686 318.9478 15.80904840  3490
STARLINK-37502          
1 69263U 26117AB  26171.28043365  .02544169  00000+0  99740-2 0  9992
2 69263  53.1564 227.3737 0012250 249.8292 110.1414 15.83064921  3474
STARLINK-37486          
1 69264U 26117AC  26171.46905720  .00161486  00000+0  80454-3 0  9993
2 69264  53.1568 226.4179 0000870  74.4902 285.6216 15.80925691  3503
STARLINK-37435          
1 69265U 26117AD  26171.40732595  .00180682  00000+0  89745-3 0  9997
2 69265  53.1579 226.7430 0001387  47.8444 312.2696 15.80933054  3497
STARLINK-37464          
1 69266U 26117AE  26171.40059862  .00289014  00000+0  13472-2 0  9999
2 69266  53.1570 226.6963 0001280 138.7812 221.3308 15.82002341  3498
KUIPER-00282            
1 69267U 26118A   26171.34884485  .00016548  00000+0  50074-3 0  9991
2 69267  51.8599  38.3474 0011822 192.8240 167.2446 15.34257112  4463
KUIPER-00383            
1 69268U 26118B   26171.41668980  .00028489  00000+0  85233-3 0  9992
2 69268  51.8598  37.9848 0011326 196.4782 196.3694 15.34270480  3913
KUIPER-00527            
1 69269U 26118C   26171.34005183 -.00008656  00000+0 -24209-3 0  9997
2 69269  51.8622  38.2953 0009776 183.4582 176.6337 15.34705018  4469
KUIPER-00562            
1 69270U 26118D   26171.36382356  .00022169  00000+0  57892-3 0  9998
2 69270  51.8727  37.7183 0001602 124.7780 235.3358 15.38713496  4474
