OBJECT_NAME,OBJECT_ID,EPOCH,MEAN_MOTION,ECCENTRICITY,INCLINATION,RA_OF_ASC_NODE,ARG_OF_PERICENTER,MEAN_ANOMALY,EPHEMERIS_TYPE,CLASSIFICATION_TYPE,NORAD_CAT_ID,ELEMENT_SET_NO,REV_AT_EPOCH,BSTAR,MEAN_MOTION_DOT,MEAN_MOTION_DDOT
STARLINK-37742,2026-117D,2026-06-20T11:06:56.687904,15.82061808,.0002646,53.1574,227.1290,154.3678,205.7476,0,U,69241,999,349,.11457E-2,.24512E-2,0
STARLINK-37718,2026-117E,2026-06-20T00:00:02.000160,15.81944161,.00011857,53.1570,229.4379,81.1874,166.8057,0,U,69242,999,462,.28807315E-3,.59451E-3,0
STARLINK-37735,2026-117F,2026-06-20T09:34:03.203616,15.82064732,.0001249,53.1574,227.4355,70.9363,289.1796,0,U,69243,999,348,.18243E-2,.39779E-2,0
STARLINK-37757,2026-117G,2026-06-20T07:59:37.475232,15.82064359,.0002518,53.1575,227.7365,133.7627,226.3605,0,U,69244,999,347,.7338E-3,.155126E-2,0
STARLINK-37767,2026-117H,2026-06-20T10:55:25.982112,15.82066416,.0001724,53.1567,227.0734,30.8533,329.2591,0,U,69245,999,349,.13196E-2,.283755E-2,0
STARLINK-35759,2026-117J,2026-06-20T09:23:28.464288,15.82007370,.0001587,53.1566,227.3857,20.1294,339.9791,0,U,69246,999,348,.12862E-2,.275532E-2,0
STARLINK-37238,2026-117K,2026-06-20T10:48:02.940192,15.82037727,.0000911,53.1570,227.0372,93.8420,266.2707,0,U,69247,999,349,.11515E-2,.246113E-2,0
STARLINK-37412,2026-117L,2026-06-20T10:43:11.705664,15.82068826,.0000787,53.1563,227.0138,95.6238,264.4875,0,U,69248,999,349,.1107E-2,.236656E-2,0
STARLINK-37398,2026-117M,2026-06-20T10:52:44.027904,15.80916376,.0001146,53.1571,227.0607,42.1566,317.9545,0,U,69249,999,349,.95641E-3,.192722E-2,0
STARLINK-37499,2026-117N,2026-06-20T10:40:45.211872,15.81799202,.0001474,53.1568,227.0026,126.7767,233.3391,0,U,69250,999,349,-.96818E-3,-.195758E-2,0
STARLINK-37489,2026-117P,2026-06-20T10:38:13.799328,15.81657604,.0001536,53.1575,226.9917,78.7934,281.3262,0,U,69251,999,349,.12087E-3,.24099E-3,0
STARLINK-37434,2026-117Q,2026-06-20T10:33:55.872000,15.81867022,.0000905,53.1578,226.9707,94.4989,265.6137,0,U,69252,999,349,-.53122E-3,-.109127E-2,0
STARLINK-37368,2026-117R,2026-06-19T08:37:40.933920,15.82050377,.0001411,53.1570,232.3157,28.9383,331.1718,0,U,69253,999,332,.16057939E-2,.347784E-2,0
STARLINK-37517,2026-117S,2026-06-20T10:22:15.702816,15.81446616,.0003081,53.1572,226.9163,21.4848,338.6304,0,U,69254,999,349,.66416E-2,.153077E-1,0
STARLINK-37378,2026-117T,2026-06-20T10:21:49.184064,15.82037688,.0000689,53.1566,226.9138,112.6775,247.4321,0,U,69255,999,349,.12593E-2,.269955E-2,0
STARLINK-37396,2026-117U,2026-06-20T10:18:17.726112,15.82055670,.0001346,53.1572,226.8957,34.2762,325.8348,0,U,69256,999,349,.87151E-3,.184921E-2,0
STARLINK-37508,2026-117V,2026-06-20T04:20:18.846816,15.81444365,.00030311,53.1572,228.1933,7.8846,352.2224,0,U,69257,999,345,.15952661E-2,.335445E-2,0
STARLINK-37276,2026-117W,2026-06-20T09:46:09.018048,15.76006931,.0021223,53.1573,226.7411,82.7128,277.6304,0,U,69258,999,349,.21786E-3,.34506E-3,0
STARLINK-37518,2026-117X,2026-06-20T03:43:30.633024,15.81015845,.00054563,53.1569,228.0180,306.9405,53.1118,0,U,69259,999,345,.12869179E-2,.26307E-2,0
STARLINK-37478,2026-117Y,2026-06-20T10:00:01.998720,15.71782606,.0001308,53.1598,226.7644,43.5629,337.5819,0,U,69260,999,470,-.19633E-1,-.2250899E-1,0
STARLINK-37506,2026-117Z,2026-06-20T09:47:16.415232,15.80874738,.0001174,53.1579,226.7474,82.8515,277.2641,0,U,69261,999,348,.11869E-2,.240201E-2,0
STARLINK-37503,2026-117AA,2026-06-20T09:46:54.486048,15.80904840,.000188,53.1579,226.7459,41.1686,318.9478,0,U,69262,999,349,.13173E-2,.267916E-2,0
STARLINK-37502,2026-117AB,2026-06-20T06:43:49.467360,15.83064921,.001225,53.1564,227.3737,249.8292,110.1414,0,U,69263,999,347,.9974E-2,.2544169E-1,0
STARLINK-37486,2026-117AC,2026-06-20T11:15:26.542080,15.80925691,.000087,53.1568,226.4179,74.4902,285.6216,0,U,69264,999,350,.80454E-3,.161486E-2,0
STARLINK-37435,2026-117AD,2026-06-20T09:46:32.962080,15.80933054,.0001387,53.1579,226.7430,47.8444,312.2696,0,U,69265,999,349,.89745E-3,.180682E-2,0
STARLINK-37464,2026-117AE,2026-06-20T09:36:51.720768,15.82002341,.000128,53.1570,226.6963,138.7812,221.3308,0,U,69266,999,349,.13472E-2,.289014E-2,0
KUIPER-00282,2026-118A,2026-06-20T08:22:20.195040,15.34257112,.0011822,51.8599,38.3474,192.8240,167.2446,0,U,69267,999,446,.50074E-3,.16548E-3,0
KUIPER-00383,2026-118B,2026-06-20T10:00:01.998720,15.34270480,.0011326,51.8598,37.9848,196.4782,196.3694,0,U,69268,999,391,.85233E-3,.28489E-3,0
KUIPER-00527,2026-118C,2026-06-20T08:09:40.478112,15.34705018,.0009776,51.8622,38.2953,183.4582,176.6337,0,U,69269,999,446,-.24209E-3,-.8656E-4,0
KUIPER-00562,2026-118D,2026-06-20T08:43:54.355584,15.38713496,.0001602,51.8727,37.7183,124.7780,235.3358,0,U,69270,999,447,.57892E-3,.22169E-3,0
